UNKNOWN                 
1 84006U          26084.29526580  .00000037  00000+0  00000+0 0  9993
2 84006  22.3887 156.5223 6166861  96.6705 332.3368  2.16231086 86440
UNKNOWN                 
1 84177U          26085.98990080  .00004124  00000+0  53429-2 0  9996
2 84177   7.5543 125.0345 6584629 203.9091 101.2563  3.11924316133361
UNKNOWN                 
1 84188U          26086.39905008  .00177934  00000+0  90043-1 0  9992
2 84188  64.8855 161.3273 3475700   6.3257 357.1654  8.10762044 49533
UNKNOWN                 
1 84192U          26085.94961519  .00004983  00000+0  13663-1 0  9992
2 84192   6.1026  57.5144 6956391 338.3085   2.7316  2.59776346112569
UNKNOWN                 
1 84232U          26086.21833129  .00046449  00000+0  29492-1 0  9993
2 84232  20.3080 213.4527 6525385 174.0960 201.2152  3.23412078108034
UNKNOWN                 
1 84292U          26086.12237946  .00003451  00000+0  21872-2 0  9995
2 84292  23.8381  15.7081 4551163 131.5384 277.6153  6.22407183234568
UNKNOWN                 
1 84406U          26085.69393062  .00000555  00000+0  31186-2 0  9996
2 84406 101.7219 236.2012 0050727 192.1916 180.3498 12.67518606 62464
UNKNOWN                 
1 84407U          26085.90334660  .00000010  00000+0  18441-2 0  9995
2 84407  19.4369 291.8438 7216825 117.8091 330.6575  2.05797046 78015
UNKNOWN                 
1 84575U          26086.43804105 -.00000302  00000+0 -59222-2 0  9994
2 84575  18.0235 123.2634 7121569  86.7705 345.1449  2.19859233 67763
UNKNOWN                 
1 84932U          26086.57492554  .00000327  00000+0  37834-2 0  9997
2 84932   2.0566 181.4035 6574803 174.8383 169.8740  3.00165396134923
UNKNOWN                 
1 85004U          26086.41196560  .00000892  00000+0  28522-3 0  9991
2 85004  98.4367  61.0057 0046065 206.4478 306.1382 14.41393301645970
