CCSDS_OMM_VERS = 2.0
CREATION_DATE  = 
ORIGINATOR     = 

OBJECT_NAME    = UNKNOWN
OBJECT_ID      = 
CENTER_NAME    = EARTH
REF_FRAME      = TEME
TIME_SYSTEM    = UTC
MEAN_ELEMENT_THEORY = SGP/SGP4

EPOCH          = 2026-03-25T07:05:10.965120
MEAN_MOTION    = 2.16231086
ECCENTRICITY   = .6166861
INCLINATION    = 22.3887
RA_OF_ASC_NODE = 156.5223
ARG_OF_PERICENTER = 96.6705
MEAN_ANOMALY   = 332.3368

EPHEMERIS_TYPE = 0
CLASSIFICATION_TYPE = U
NORAD_CAT_ID   = 84006
ELEMENT_SET_NO = 999
REV_AT_EPOCH   = 8644
BSTAR          = 0
MEAN_MOTION_DOT = .37E-6
MEAN_MOTION_DDOT = 0

CCSDS_OMM_VERS = 2.0
CREATION_DATE  = 
ORIGINATOR     = 

OBJECT_NAME    = UNKNOWN
OBJECT_ID      = 
CENTER_NAME    = EARTH
REF_FRAME      = TEME
TIME_SYSTEM    = UTC
MEAN_ELEMENT_THEORY = SGP/SGP4

EPOCH          = 2026-03-26T23:45:27.429120
MEAN_MOTION    = 3.11924316
ECCENTRICITY   = .6584629
INCLINATION    = 7.5543
RA_OF_ASC_NODE = 125.0345
ARG_OF_PERICENTER = 203.9091
MEAN_ANOMALY   = 101.2563

EPHEMERIS_TYPE = 0
CLASSIFICATION_TYPE = U
NORAD_CAT_ID   = 84177
ELEMENT_SET_NO = 999
REV_AT_EPOCH   = 13336
BSTAR          = .53429E-2
MEAN_MOTION_DOT = .4124E-4
MEAN_MOTION_DDOT = 0

CCSDS_OMM_VERS = 2.0
CREATION_DATE  = 
ORIGINATOR     = 

OBJECT_NAME    = UNKNOWN
OBJECT_ID      = 
CENTER_NAME    = EARTH
REF_FRAME      = TEME
TIME_SYSTEM    = UTC
MEAN_ELEMENT_THEORY = SGP/SGP4

EPOCH          = 2026-03-27T09:34:37.926912
MEAN_MOTION    = 8.10762044
ECCENTRICITY   = .34757
INCLINATION    = 64.8855
RA_OF_ASC_NODE = 161.3273
ARG_OF_PERICENTER = 6.3257
MEAN_ANOMALY   = 357.1654

EPHEMERIS_TYPE = 0
CLASSIFICATION_TYPE = U
NORAD_CAT_ID   = 84188
ELEMENT_SET_NO = 999
REV_AT_EPOCH   = 4953
BSTAR          = .90043E-1
MEAN_MOTION_DOT = .177934E-2
MEAN_MOTION_DDOT = 0

CCSDS_OMM_VERS = 2.0
CREATION_DATE  = 
ORIGINATOR     = 

OBJECT_NAME    = UNKNOWN
OBJECT_ID      = 
CENTER_NAME    = EARTH
REF_FRAME      = TEME
TIME_SYSTEM    = UTC
MEAN_ELEMENT_THEORY = SGP/SGP4

EPOCH          = 2026-03-26T22:47:26.752416
MEAN_MOTION    = 2.59776346
ECCENTRICITY   = .6956391
INCLINATION    = 6.1026
RA_OF_ASC_NODE = 57.5144
ARG_OF_PERICENTER = 338.3085
MEAN_ANOMALY   = 2.7316

EPHEMERIS_TYPE = 0
CLASSIFICATION_TYPE = U
NORAD_CAT_ID   = 84192
ELEMENT_SET_NO = 999
REV_AT_EPOCH   = 11256
BSTAR          = .13663E-1
MEAN_MOTION_DOT = .4983E-4
MEAN_MOTION_DDOT = 0

CCSDS_OMM_VERS = 2.0
CREATION_DATE  = 
ORIGINATOR     = 

OBJECT_NAME    = UNKNOWN
OBJECT_ID      = 
CENTER_NAME    = EARTH
REF_FRAME      = TEME
TIME_SYSTEM    = UTC
MEAN_ELEMENT_THEORY = SGP/SGP4

EPOCH          = 2026-03-27T05:14:23.823456
MEAN_MOTION    = 3.23412078
ECCENTRICITY   = .6525385
INCLINATION    = 20.3080
RA_OF_ASC_NODE = 213.4527
ARG_OF_PERICENTER = 174.0960
MEAN_ANOMALY   = 201.2152

EPHEMERIS_TYPE = 0
CLASSIFICATION_TYPE = U
NORAD_CAT_ID   = 84232
ELEMENT_SET_NO = 999
REV_AT_EPOCH   = 10803
BSTAR          = .29492E-1
MEAN_MOTION_DOT = .46449E-3
MEAN_MOTION_DDOT = 0

CCSDS_OMM_VERS = 2.0
CREATION_DATE  = 
ORIGINATOR     = 

OBJECT_NAME    = UNKNOWN
OBJECT_ID      = 
CENTER_NAME    = EARTH
REF_FRAME      = TEME
TIME_SYSTEM    = UTC
MEAN_ELEMENT_THEORY = SGP/SGP4

EPOCH          = 2026-03-27T02:56:13.585344
MEAN_MOTION    = 6.22407183
ECCENTRICITY   = .4551163
INCLINATION    = 23.8381
RA_OF_ASC_NODE = 15.7081
ARG_OF_PERICENTER = 131.5384
MEAN_ANOMALY   = 277.6153

EPHEMERIS_TYPE = 0
CLASSIFICATION_TYPE = U
NORAD_CAT_ID   = 84292
ELEMENT_SET_NO = 999
REV_AT_EPOCH   = 23456
BSTAR          = .21872E-2
MEAN_MOTION_DOT = .3451E-4
MEAN_MOTION_DDOT = 0

CCSDS_OMM_VERS = 2.0
CREATION_DATE  = 
ORIGINATOR     = 

OBJECT_NAME    = UNKNOWN
OBJECT_ID      = 
CENTER_NAME    = EARTH
REF_FRAME      = TEME
TIME_SYSTEM    = UTC
MEAN_ELEMENT_THEORY = SGP/SGP4

EPOCH          = 2026-03-26T16:39:15.605568
MEAN_MOTION    = 12.67518606
ECCENTRICITY   = .0050727
INCLINATION    = 101.7219
RA_OF_ASC_NODE = 236.2012
ARG_OF_PERICENTER = 192.1916
MEAN_ANOMALY   = 180.3498

EPHEMERIS_TYPE = 0
CLASSIFICATION_TYPE = U
NORAD_CAT_ID   = 84406
ELEMENT_SET_NO = 999
REV_AT_EPOCH   = 6246
BSTAR          = .31186E-2
MEAN_MOTION_DOT = .555E-5
MEAN_MOTION_DDOT = 0

CCSDS_OMM_VERS = 2.0
CREATION_DATE  = 
ORIGINATOR     = 

OBJECT_NAME    = UNKNOWN
OBJECT_ID      = 
CENTER_NAME    = EARTH
REF_FRAME      = TEME
TIME_SYSTEM    = UTC
MEAN_ELEMENT_THEORY = SGP/SGP4

EPOCH          = 2026-03-26T21:40:49.146240
MEAN_MOTION    = 2.05797046
ECCENTRICITY   = .7216825
INCLINATION    = 19.4369
RA_OF_ASC_NODE = 291.8438
ARG_OF_PERICENTER = 117.8091
MEAN_ANOMALY   = 330.6575

EPHEMERIS_TYPE = 0
CLASSIFICATION_TYPE = U
NORAD_CAT_ID   = 84407
ELEMENT_SET_NO = 999
REV_AT_EPOCH   = 7801
BSTAR          = .18441E-2
MEAN_MOTION_DOT = .1E-6
MEAN_MOTION_DDOT = 0

CCSDS_OMM_VERS = 2.0
CREATION_DATE  = 
ORIGINATOR     = 

OBJECT_NAME    = UNKNOWN
OBJECT_ID      = 
CENTER_NAME    = EARTH
REF_FRAME      = TEME
TIME_SYSTEM    = UTC
MEAN_ELEMENT_THEORY = SGP/SGP4

EPOCH          = 2026-03-27T10:30:46.746720
MEAN_MOTION    = 2.19859233
ECCENTRICITY   = .7121569
INCLINATION    = 18.0235
RA_OF_ASC_NODE = 123.2634
ARG_OF_PERICENTER = 86.7705
MEAN_ANOMALY   = 345.1449

EPHEMERIS_TYPE = 0
CLASSIFICATION_TYPE = U
NORAD_CAT_ID   = 84575
ELEMENT_SET_NO = 999
REV_AT_EPOCH   = 6776
BSTAR          = -.59222E-2
MEAN_MOTION_DOT = -.302E-5
MEAN_MOTION_DDOT = 0

CCSDS_OMM_VERS = 2.0
CREATION_DATE  = 
ORIGINATOR     = 

OBJECT_NAME    = UNKNOWN
OBJECT_ID      = 
CENTER_NAME    = EARTH
REF_FRAME      = TEME
TIME_SYSTEM    = UTC
MEAN_ELEMENT_THEORY = SGP/SGP4

EPOCH          = 2026-03-27T13:47:53.566656
MEAN_MOTION    = 3.00165396
ECCENTRICITY   = .6574803
INCLINATION    = 2.0566
RA_OF_ASC_NODE = 181.4035
ARG_OF_PERICENTER = 174.8383
MEAN_ANOMALY   = 169.8740

EPHEMERIS_TYPE = 0
CLASSIFICATION_TYPE = U
NORAD_CAT_ID   = 84932
ELEMENT_SET_NO = 999
REV_AT_EPOCH   = 13492
BSTAR          = .37834E-2
MEAN_MOTION_DOT = .327E-5
MEAN_MOTION_DDOT = 0

CCSDS_OMM_VERS = 2.0
CREATION_DATE  = 
ORIGINATOR     = 

OBJECT_NAME    = UNKNOWN
OBJECT_ID      = 
CENTER_NAME    = EARTH
REF_FRAME      = TEME
TIME_SYSTEM    = UTC
MEAN_ELEMENT_THEORY = SGP/SGP4

EPOCH          = 2026-03-27T09:53:13.827840
MEAN_MOTION    = 14.41393301
ECCENTRICITY   = .0046065
INCLINATION    = 98.4367
RA_OF_ASC_NODE = 61.0057
ARG_OF_PERICENTER = 206.4478
MEAN_ANOMALY   = 306.1382

EPHEMERIS_TYPE = 0
CLASSIFICATION_TYPE = U
NORAD_CAT_ID   = 85004
ELEMENT_SET_NO = 999
REV_AT_EPOCH   = 64597
BSTAR          = .28522E-3
MEAN_MOTION_DOT = .892E-5
MEAN_MOTION_DDOT = 0

